{
    "links": {
        "self": "http://www.neowsapp.com/rest/v1/neo/3773832?api_key=iIulBulltgU6a56xZRHN4H3l9WmuAYTsLGpBGhQ2"
    },
    "id": "3773832",
    "neo_reference_id": "3773832",
    "name": "(2017 GN5)",
    "designation": "2017 GN5",
    "nasa_jpl_url": "http://ssd.jpl.nasa.gov/sbdb.cgi?sstr=3773832",
    "absolute_magnitude_h": 24.7,
    "estimated_diameter": {
        "kilometers": {
            "estimated_diameter_min": 0.0305179233,
            "estimated_diameter_max": 0.0682401509
        },
        "meters": {
            "estimated_diameter_min": 30.5179232594,
            "estimated_diameter_max": 68.2401509401
        },
        "miles": {
            "estimated_diameter_min": 0.0189629525,
            "estimated_diameter_max": 0.0424024508
        },
        "feet": {
            "estimated_diameter_min": 100.1244233463,
            "estimated_diameter_max": 223.8850168104
        }
    },
    "is_potentially_hazardous_asteroid": false,
    "close_approach_data": [
        {
            "close_approach_date": "2017-04-12",
            "close_approach_date_full": "2017-Apr-12 18:37",
            "epoch_date_close_approach": 1492022220000,
            "relative_velocity": {
                "kilometers_per_second": "23.5393151578",
                "kilometers_per_hour": "84741.5345681326",
                "miles_per_hour": "52655.0940765155"
            },
            "miss_distance": {
                "astronomical": "0.0285679485",
                "lunar": "11.1129319665",
                "kilometers": "4273704.245869695",
                "miles": "2655556.678583991"
            },
            "orbiting_body": "Earth"
        }
    ],
    "orbital_data": {
        "orbit_id": "4",
        "orbit_determination_date": "2017-04-13 06:13:14",
        "first_observation_date": "2017-04-03",
        "last_observation_date": "2017-04-12",
        "data_arc_in_days": 9,
        "observations_used": 48,
        "orbit_uncertainty": "8",
        "minimum_orbit_intersection": ".0282397",
        "jupiter_tisserand_invariant": "3.076",
        "epoch_osculation": "2457849.5",
        "eccentricity": ".7625288943112295",
        "semi_major_axis": "2.357752395690996",
        "inclination": "3.546023115988589",
        "ascending_node_longitude": "176.050251285097",
        "orbital_period": "1322.347867171559",
        "perihelion_distance": ".5598980683450884",
        "perihelion_argument": "118.3345375691012",
        "aphelion_distance": "4.155606723036904",
        "perihelion_time": "2457901.832876268499",
        "mean_anomaly": "345.7527388031735",
        "mean_motion": ".2722430375072358",
        "equinox": "J2000",
        "orbit_class": {
            "orbit_class_type": "APO",
            "orbit_class_description": "Near-Earth asteroid orbits which cross the Earth’s orbit similar to that of 1862 Apollo",
            "orbit_class_range": "a (semi-major axis) > 1.0 AU; q (perihelion) < 1.017 AU"
        }
    },
    "is_sentry_object": false
}